{
  "type": "FeatureCollection",
  "features": [
    {
      "type": "Feature",
      "properties": {
        "norad_id": 46277,
        "name": "NEMO-HD",
        "group": "resource",
        "lat": -22.12023499323799,
        "lon": 62.274181860347724,
        "alt_km": 449.627023894599,
        "timestamp": "2025-12-26T09:30:53.285690+00:00",
        "meta_object_name": "NEMO-HD",
        "meta_object_id": "2020-061F",
        "meta_epoch": "2025-12-26T04:56:05.497152",
        "meta_mean_motion": 15.40602954,
        "meta_eccentricity": 0.0001013,
        "meta_inclination": 97.2188,
        "meta_ra_of_asc_node": 59.1325,
        "meta_arg_of_pericenter": 53.9832,
        "meta_mean_anomaly": 306.1509,
        "meta_ephemeris_type": 0,
        "meta_classification_type": "U",
        "meta_norad_cat_id": 46277,
        "meta_element_set_no": 999,
        "meta_rev_at_epoch": 29531,
        "meta_bstar": 0.00026335,
        "meta_mean_motion_dot": 0.00010637,
        "meta_mean_motion_ddot": 0,
        "tle_line1": "1 46277U 20061F   25360.20561918  .00010637  00000+0  26335-3 0  9991",
        "tle_line2": "2 46277  97.2188  59.1325 0001013  53.9832 306.1509 15.40602954295313"
      },
      "geometry": {
        "type": "Point",
        "coordinates": [
          62.274181860347724,
          -22.12023499323799
        ]
      }
    },
    {
      "type": "Feature",
      "properties": {
        "norad_id": 46984,
        "name": "SENTINEL-6A",
        "group": "resource",
        "lat": 58.44590623659346,
        "lon": -179.66732351914624,
        "alt_km": 1336.8089200241857,
        "timestamp": "2025-12-26T09:30:53.285700+00:00",
        "meta_object_name": "SENTINEL-6A",
        "meta_object_id": "2020-086A",
        "meta_epoch": "2025-12-25T18:09:57.449088",
        "meta_mean_motion": 12.80930775,
        "meta_eccentricity": 0.00077549,
        "meta_inclination": 66.0401,
        "meta_ra_of_asc_node": 135.2711,
        "meta_arg_of_pericenter": 269.4393,
        "meta_mean_anomaly": 90.5733,
        "meta_ephemeris_type": 0,
        "meta_classification_type": "U",
        "meta_norad_cat_id": 46984,
        "meta_element_set_no": 999,
        "meta_rev_at_epoch": 23811,
        "meta_bstar": 4.727934e-05,
        "meta_mean_motion_dot": -5e-07,
        "meta_mean_motion_ddot": 0,
        "tle_line1": "1 46984U 20086A   25359.75691492 -.00000050  00000+0  47279-4 0  9992",
        "tle_line2": "2 46984  66.0401 135.2711 0007754 269.4393  90.5733 12.80930775238113"
      },
      "geometry": {
        "type": "Point",
        "coordinates": [
          -179.66732351914624,
          58.44590623659346
        ]
      }
    },
    {
      "type": "Feature",
      "properties": {
        "norad_id": 48079,
        "name": "GAOFEN-12 02",
        "group": "resource",
        "lat": 25.10507150367901,
        "lon": -9.433947210127966,
        "alt_km": 624.7661162330305,
        "timestamp": "2025-12-26T09:30:53.285711+00:00",
        "meta_object_name": "GAOFEN-12 02",
        "meta_object_id": "2021-026A",
        "meta_epoch": "2025-12-26T04:32:06.263232",
        "meta_mean_motion": 14.80690492,
        "meta_eccentricity": 0.000354,
        "meta_inclination": 97.9858,
        "meta_ra_of_asc_node": 354.1309,
        "meta_arg_of_pericenter": 74.168,
        "meta_mean_anomaly": 285.9922,
        "meta_ephemeris_type": 0,
        "meta_classification_type": "U",
        "meta_norad_cat_id": 48079,
        "meta_element_set_no": 999,
        "meta_rev_at_epoch": 25616,
        "meta_bstar": 7.3158e-05,
        "meta_mean_motion_dot": 5.1e-06,
        "meta_mean_motion_ddot": 0,
        "tle_line1": "1 48079U 21026A   25360.18896138  .00000510  00000+0  73158-4 0  9992",
        "tle_line2": "2 48079  97.9858 354.1309 0003540  74.1680 285.9922 14.80690492256169"
      },
      "geometry": {
        "type": "Point",
        "coordinates": [
          -9.433947210127966,
          25.10507150367901
        ]
      }
    },
    {
      "type": "Feature",
      "properties": {
        "norad_id": 48268,
        "name": "PLEIADES NEO 3",
        "group": "resource",
        "lat": 38.503606532602724,
        "lon": -101.02135140238727,
        "alt_km": 620.6101058378317,
        "timestamp": "2025-12-26T09:30:53.285721+00:00",
        "meta_object_name": "PLEIADES NEO 3",
        "meta_object_id": "2021-034A",
        "meta_epoch": "2025-12-26T04:01:06.458304",
        "meta_mean_motion": 14.81672611,
        "meta_eccentricity": 0.000134,
        "meta_inclination": 97.8942,
        "meta_ra_of_asc_node": 72.4156,
        "meta_arg_of_pericenter": 90.5491,
        "meta_mean_anomaly": 269.5876,
        "meta_ephemeris_type": 0,
        "meta_classification_type": "U",
        "meta_norad_cat_id": 48268,
        "meta_element_set_no": 999,
        "meta_rev_at_epoch": 25203,
        "meta_bstar": 3.7812e-05,
        "meta_mean_motion_dot": 2.46e-06,
        "meta_mean_motion_ddot": 0,
        "tle_line1": "1 48268U 21034A   25360.16743586  .00000246  00000+0  37812-4 0  9990",
        "tle_line2": "2 48268  97.8942  72.4156 0001340  90.5491 269.5876 14.81672611252032"
      },
      "geometry": {
        "type": "Point",
        "coordinates": [
          -101.02135140238727,
          38.503606532602724
        ]
      }
    },
    {
      "type": "Feature",
      "properties": {
        "norad_id": 49070,
        "name": "PLEIADES NEO 4",
        "group": "resource",
        "lat": -38.65170963034984,
        "lon": 79.0085530319729,
        "alt_km": 631.1356073270244,
        "timestamp": "2025-12-26T09:30:53.285735+00:00",
        "meta_object_name": "PLEIADES NEO 4",
        "meta_object_id": "2021-073E",
        "meta_epoch": "2025-12-26T03:12:28.021824",
        "meta_mean_motion": 14.81671012,
        "meta_eccentricity": 0.0001391,
        "meta_inclination": 97.8943,
        "meta_ra_of_asc_node": 72.3783,
        "meta_arg_of_pericenter": 90.3514,
        "meta_mean_anomaly": 269.7858,
        "meta_ephemeris_type": 0,
        "meta_classification_type": "U",
        "meta_norad_cat_id": 49070,
        "meta_element_set_no": 999,
        "meta_rev_at_epoch": 23574,
        "meta_bstar": -0.00011023,
        "meta_mean_motion_dot": -9.19e-06,
        "meta_mean_motion_ddot": 0,
        "tle_line1": "1 49070U 21073E   25360.13365766 -.00000919  00000+0 -11023-3 0  9996",
        "tle_line2": "2 49070  97.8943  72.3783 0001391  90.3514 269.7858 14.81671012235745"
      },
      "geometry": {
        "type": "Point",
        "coordinates": [
          79.0085530319729,
          -38.65170963034984
        ]
      }
    },
    {
      "type": "Feature",
      "properties": {
        "norad_id": 49260,
        "name": "LANDSAT 9",
        "group": "resource",
        "lat": -31.645230823393348,
        "lon": -116.7950177527615,
        "alt_km": 708.9511305487868,
        "timestamp": "2025-12-26T09:30:53.285745+00:00",
        "meta_object_name": "LANDSAT 9",
        "meta_object_id": "2021-088A",
        "meta_epoch": "2025-12-26T03:36:04.167936",
        "meta_mean_motion": 14.5711124,
        "meta_eccentricity": 0.000111,
        "meta_inclination": 98.2076,
        "meta_ra_of_asc_node": 68.0655,
        "meta_arg_of_pericenter": 93.5526,
        "meta_mean_anomaly": 266.5799,
        "meta_ephemeris_type": 0,
        "meta_classification_type": "U",
        "meta_norad_cat_id": 49260,
        "meta_element_set_no": 999,
        "meta_rev_at_epoch": 22580,
        "meta_bstar": 0.00010352,
        "meta_mean_motion_dot": 4.21e-06,
        "meta_mean_motion_ddot": 0,
        "tle_line1": "1 49260U 21088A   25360.15004824  .00000421  00000+0  10352-3 0  9990",
        "tle_line2": "2 49260  98.2076  68.0655 0001110  93.5526 266.5799 14.57111240225805"
      },
      "geometry": {
        "type": "Point",
        "coordinates": [
          -116.7950177527615,
          -31.645230823393348
        ]
      }
    },
    {
      "type": "Feature",
      "properties": {
        "norad_id": 51444,
        "name": "CSG-2",
        "group": "resource",
        "lat": 16.95029951835599,
        "lon": 179.0938804333786,
        "alt_km": 622.6760579692473,
        "timestamp": "2025-12-26T09:30:53.285755+00:00",
        "meta_object_name": "CSG-2",
        "meta_object_id": "2022-008A",
        "meta_epoch": "2025-12-26T04:34:37.390656",
        "meta_mean_motion": 14.82155616,
        "meta_eccentricity": 0.000144,
        "meta_inclination": 97.8806,
        "meta_ra_of_asc_node": 181.3108,
        "meta_arg_of_pericenter": 82.7467,
        "meta_mean_anomaly": 277.391,
        "meta_ephemeris_type": 0,
        "meta_classification_type": "U",
        "meta_norad_cat_id": 51444,
        "meta_element_set_no": 999,
        "meta_rev_at_epoch": 21096,
        "meta_bstar": 4.1196e-05,
        "meta_mean_motion_dot": 2.76e-06,
        "meta_mean_motion_ddot": 0,
        "tle_line1": "1 51444U 22008A   25360.19071054  .00000276  00000+0  41196-4 0  9992",
        "tle_line2": "2 51444  97.8806 181.3108 0001440  82.7467 277.3910 14.82155616210969"
      },
      "geometry": {
        "type": "Point",
        "coordinates": [
          179.0938804333786,
          16.95029951835599
        ]
      }
    }
  ]
}